[{"OBJECT_NAME":"BRO-11","OBJECT_ID":"2023-174J","EPOCH":"2026-03-09T23:01:09.890400","MEAN_MOTION":15.26267731,"ECCENTRICITY":0.00104518,"INCLINATION":97.3961,"RA_OF_ASC_NODE":146.7679,"ARG_OF_PERICENTER":189.9892,"MEAN_ANOMALY":170.1141,"EPHEMERIS_TYPE":0,"CLASSIFICATION_TYPE":"U","NORAD_CAT_ID":58264,"ELEMENT_SET_NO":999,"REV_AT_EPOCH":12961,"BSTAR":0.00032296323,"MEAN_MOTION_DOT":8.313e-5,"MEAN_MOTION_DDOT":0},{"OBJECT_NAME":"STARLINK-31343","OBJECT_ID":"2024-041V","EPOCH":"2026-03-09T09:31:01.235712","MEAN_MOTION":15.27562442,"ECCENTRICITY":0.00015752,"INCLINATION":43.0026,"RA_OF_ASC_NODE":312.6134,"ARG_OF_PERICENTER":269.7459,"MEAN_ANOMALY":90.3212,"EPHEMERIS_TYPE":0,"CLASSIFICATION_TYPE":"U","NORAD_CAT_ID":59093,"ELEMENT_SET_NO":999,"REV_AT_EPOCH":11427,"BSTAR":0.00033569117,"MEAN_MOTION_DOT":8.982e-5,"MEAN_MOTION_DDOT":0}]
